[{"OBJECT_NAME":"STARLINK-36199","OBJECT_ID":"2025-304X","EPOCH":"2026-01-24T17:27:30.317472","MEAN_MOTION":15.42745383,"ECCENTRICITY":0.00034387,"INCLINATION":70.0033,"RA_OF_ASC_NODE":288.3291,"ARG_OF_PERICENTER":259.2756,"MEAN_ANOMALY":100.8039,"EPHEMERIS_TYPE":0,"CLASSIFICATION_TYPE":"U","NORAD_CAT_ID":67213,"ELEMENT_SET_NO":999,"REV_AT_EPOCH":722,"BSTAR":0.0017324042,"MEAN_MOTION_DOT":0.0007656,"MEAN_MOTION_DDOT":0},{"OBJECT_NAME":"STARLINK-36203","OBJECT_ID":"2025-304Y","EPOCH":"2026-01-24T17:21:32.096160","MEAN_MOTION":15.42761085,"ECCENTRICITY":0.00033298,"INCLINATION":70.0007,"RA_OF_ASC_NODE":288.3161,"ARG_OF_PERICENTER":274.9248,"MEAN_ANOMALY":85.1553,"EPHEMERIS_TYPE":0,"CLASSIFICATION_TYPE":"U","NORAD_CAT_ID":67214,"ELEMENT_SET_NO":999,"REV_AT_EPOCH":722,"BSTAR":0.0023891332,"MEAN_MOTION_DOT":0.00106099,"MEAN_MOTION_DDOT":0},{"OBJECT_NAME":"STARLINK-36221","OBJECT_ID":"2025-304Z","EPOCH":"2026-01-24T17:15:48.218976","MEAN_MOTION":15.42744192,"ECCENTRICITY":0.00031737,"INCLINATION":70.0047,"RA_OF_ASC_NODE":288.3017,"ARG_OF_PERICENTER":268.0554,"MEAN_ANOMALY":92.0264,"EPHEMERIS_TYPE":0,"CLASSIFICATION_TYPE":"U","NORAD_CAT_ID":67215,"ELEMENT_SET_NO":999,"REV_AT_EPOCH":722,"BSTAR":0.0013870543,"MEAN_MOTION_DOT":0.00061142,"MEAN_MOTION_DDOT":0},{"OBJECT_NAME":"STARLINK-36212","OBJECT_ID":"2025-304AA","EPOCH":"2026-01-24T17:09:51.563232","MEAN_MOTION":15.42685399,"ECCENTRICITY":0.00040096,"INCLINATION":70.0033,"RA_OF_ASC_NODE":288.2862,"ARG_OF_PERICENTER":266.6124,"MEAN_ANOMALY":93.4599,"EPHEMERIS_TYPE":0,"CLASSIFICATION_TYPE":"U","NORAD_CAT_ID":67216,"ELEMENT_SET_NO":999,"REV_AT_EPOCH":722,"BSTAR":0.0017151862,"MEAN_MOTION_DOT":0.00075641,"MEAN_MOTION_DDOT":0},{"OBJECT_NAME":"STARLINK-36216","OBJECT_ID":"2025-304AB","EPOCH":"2026-01-24T03:03:49.681440","MEAN_MOTION":15.42732794,"ECCENTRICITY":0.00042582,"INCLINATION":69.9994,"RA_OF_ASC_NODE":289.8472,"ARG_OF_PERICENTER":277.6951,"MEAN_ANOMALY":82.3747,"EPHEMERIS_TYPE":0,"CLASSIFICATION_TYPE":"U","NORAD_CAT_ID":67217,"ELEMENT_SET_NO":999,"REV_AT_EPOCH":713,"BSTAR":0.0017387945,"MEAN_MOTION_DOT":0.0007682,"MEAN_MOTION_DDOT":0},{"OBJECT_NAME":"STARLINK-36211","OBJECT_ID":"2025-304AC","EPOCH":"2026-01-24T02:57:51.527520","MEAN_MOTION":15.42741163,"ECCENTRICITY":0.00051581,"INCLINATION":70.0004,"RA_OF_ASC_NODE":289.8316,"ARG_OF_PERICENTER":265.9604,"MEAN_ANOMALY":94.0988,"EPHEMERIS_TYPE":0,"CLASSIFICATION_TYPE":"U","NORAD_CAT_ID":67218,"ELEMENT_SET_NO":999,"REV_AT_EPOCH":710,"BSTAR":0.0021292661,"MEAN_MOTION_DOT":0.00094358,"MEAN_MOTION_DDOT":0},{"OBJECT_NAME":"STARLINK-36490","OBJECT_ID":"2026-002A","EPOCH":"2026-01-24T22:00:01.999584","MEAN_MOTION":15.69518583,"ECCENTRICITY":0.00014473,"INCLINATION":42.9993,"RA_OF_ASC_NODE":215.4355,"ARG_OF_PERICENTER":271.2081,"MEAN_ANOMALY":332.7199,"EPHEMERIS_TYPE":0,"CLASSIFICATION_TYPE":"U","NORAD_CAT_ID":67305,"ELEMENT_SET_NO":999,"REV_AT_EPOCH":444,"BSTAR":-0.018458312,"MEAN_MOTION_DOT":-0.01978428,"MEAN_MOTION_DDOT":0},{"OBJECT_NAME":"STARLINK-36488","OBJECT_ID":"2026-002B","EPOCH":"2026-01-24T22:00:01.999584","MEAN_MOTION":15.69514717,"ECCENTRICITY":0.00015076,"INCLINATION":42.9993,"RA_OF_ASC_NODE":215.4311,"ARG_OF_PERICENTER":270.9318,"MEAN_ANOMALY":334.9151,"EPHEMERIS_TYPE":0,"CLASSIFICATION_TYPE":"U","NORAD_CAT_ID":67306,"ELEMENT_SET_NO":999,"REV_AT_EPOCH":438,"BSTAR":-0.018416999,"MEAN_MOTION_DOT":-0.01974288,"MEAN_MOTION_DDOT":0},{"OBJECT_NAME":"STARLINK-36481","OBJECT_ID":"2026-002C","EPOCH":"2026-01-24T19:22:57.569664","MEAN_MOTION":15.74404306,"ECCENTRICITY":0.00204846,"INCLINATION":42.9995,"RA_OF_ASC_NODE":216.0575,"ARG_OF_PERICENTER":292.785,"MEAN_ANOMALY":67.0854,"EPHEMERIS_TYPE":0,"CLASSIFICATION_TYPE":"U","NORAD_CAT_ID":67307,"ELEMENT_SET_NO":999,"REV_AT_EPOCH":433,"BSTAR":0.0030434501,"MEAN_MOTION_DOT":0.0048657,"MEAN_MOTION_DDOT":0},{"OBJECT_NAME":"STARLINK-36449","OBJECT_ID":"2026-002D","EPOCH":"2026-01-24T22:00:01.999584","MEAN_MOTION":15.69481503,"ECCENTRICITY":0.00013985,"INCLINATION":42.9993,"RA_OF_ASC_NODE":215.4164,"ARG_OF_PERICENTER":262.937,"MEAN_ANOMALY":348.6841,"EPHEMERIS_TYPE":0,"CLASSIFICATION_TYPE":"U","NORAD_CAT_ID":67308,"ELEMENT_SET_NO":999,"REV_AT_EPOCH":444,"BSTAR":-0.018037166,"MEAN_MOTION_DOT":-0.01935813,"MEAN_MOTION_DDOT":0},{"OBJECT_NAME":"STARLINK-36482","OBJECT_ID":"2026-002E","EPOCH":"2026-01-24T20:53:34.344960","MEAN_MOTION":15.74117367,"ECCENTRICITY":0.00237418,"INCLINATION":42.9982,"RA_OF_ASC_NODE":215.6711,"ARG_OF_PERICENTER":282.661,"MEAN_ANOMALY":77.1605,"EPHEMERIS_TYPE":0,"CLASSIFICATION_TYPE":"U","NORAD_CAT_ID":67309,"ELEMENT_SET_NO":999,"REV_AT_EPOCH":434,"BSTAR":0.006575667,"MEAN_MOTION_DOT":0.01097207,"MEAN_MOTION_DDOT":0},{"OBJECT_NAME":"STARLINK-36491","OBJECT_ID":"2026-002F","EPOCH":"2026-01-24T13:19:29.880480","MEAN_MOTION":15.72075249,"ECCENTRICITY":0.0002977,"INCLINATION":42.9986,"RA_OF_ASC_NODE":217.6049,"ARG_OF_PERICENTER":227.288,"MEAN_ANOMALY":132.7737,"EPHEMERIS_TYPE":0,"CLASSIFICATION_TYPE":"U","NORAD_CAT_ID":67310,"ELEMENT_SET_NO":999,"REV_AT_EPOCH":429,"BSTAR":0.0035285999,"MEAN_MOTION_DOT":0.00506693,"MEAN_MOTION_DDOT":0},{"OBJECT_NAME":"STARLINK-36495","OBJECT_ID":"2026-002G","EPOCH":"2026-01-24T22:00:01.999584","MEAN_MOTION":15.69523433,"ECCENTRICITY":0.00013872,"INCLINATION":42.9994,"RA_OF_ASC_NODE":215.4119,"ARG_OF_PERICENTER":269.4033,"MEAN_ANOMALY":344.1057,"EPHEMERIS_TYPE":0,"CLASSIFICATION_TYPE":"U","NORAD_CAT_ID":67311,"ELEMENT_SET_NO":999,"REV_AT_EPOCH":453,"BSTAR":-0.018491632,"MEAN_MOTION_DOT":-0.01981883,"MEAN_MOTION_DDOT":0},{"OBJECT_NAME":"STARLINK-36485","OBJECT_ID":"2026-002H","EPOCH":"2026-01-24T20:54:29.127744","MEAN_MOTION":15.70920592,"ECCENTRICITY":0.00123866,"INCLINATION":42.9978,"RA_OF_ASC_NODE":215.6742,"ARG_OF_PERICENTER":234.7535,"MEAN_ANOMALY":125.2174,"EPHEMERIS_TYPE":0,"CLASSIFICATION_TYPE":"U","NORAD_CAT_ID":67312,"ELEMENT_SET_NO":999,"REV_AT_EPOCH":434,"BSTAR":-0.022860171,"MEAN_MOTION_DOT":-0.02584838,"MEAN_MOTION_DDOT":0},{"OBJECT_NAME":"STARLINK-36445","OBJECT_ID":"2026-002J","EPOCH":"2026-01-24T22:00:01.999584","MEAN_MOTION":15.69513371,"ECCENTRICITY":0.00016768,"INCLINATION":42.9993,"RA_OF_ASC_NODE":215.4017,"ARG_OF_PERICENTER":270.6016,"MEAN_ANOMALY":346.7449,"EPHEMERIS_TYPE":0,"CLASSIFICATION_TYPE":"U","NORAD_CAT_ID":67313,"ELEMENT_SET_NO":999,"REV_AT_EPOCH":453,"BSTAR":-0.01836967,"MEAN_MOTION_DOT":-0.0196985,"MEAN_MOTION_DDOT":0},{"OBJECT_NAME":"STARLINK-36476","OBJECT_ID":"2026-002K","EPOCH":"2026-01-24T22:00:01.999584","MEAN_MOTION":15.69518052,"ECCENTRICITY":0.00014444,"INCLINATION":42.9994,"RA_OF_ASC_NODE":215.3979,"ARG_OF_PERICENTER":271.0144,"MEAN_ANOMALY":348.2502,"EPHEMERIS_TYPE":0,"CLASSIFICATION_TYPE":"U","NORAD_CAT_ID":67314,"ELEMENT_SET_NO":999,"REV_AT_EPOCH":438,"BSTAR":-0.018446429,"MEAN_MOTION_DOT":-0.01977263,"MEAN_MOTION_DDOT":0}]
