STARLINK-36199          
1 67213U 25304X   26024.72743423  .00076560  00000+0  17324-2 0  9991
2 67213  70.0033 288.3291 0003438 259.2756 100.8039 15.42745383  7225
STARLINK-36203          
1 67214U 25304Y   26024.72328815  .00106099  00000+0  23891-2 0  9993
2 67214  70.0007 288.3161 0003329 274.9248  85.1553 15.42761085  7225
STARLINK-36221          
1 67215U 25304Z   26024.71930809  .00061142  00000+0  13871-2 0  9991
2 67215  70.0047 288.3017 0003173 268.0554  92.0264 15.42744192  7227
STARLINK-36212          
1 67216U 25304AA  26024.71518013  .00075641  00000+0  17152-2 0  9996
2 67216  70.0033 288.2862 0004009 266.6124  93.4599 15.42685399  7225
STARLINK-36216          
1 67217U 25304AB  26024.12765835  .00076820  00000+0  17388-2 0  9999
2 67217  69.9994 289.8472 0004258 277.6951  82.3747 15.42732794  7133
STARLINK-36211          
1 67218U 25304AC  26024.12351305  .00094358  00000+0  21293-2 0  9999
2 67218  70.0004 289.8316 0005158 265.9604  94.0988 15.42741163  7105
STARLINK-36490          
1 67305U 26002A   26024.91668981 -.01978428  00000+0 -18458-1 0  9990
2 67305  42.9993 215.4355 0001447 271.2081 332.7199 15.69518583  4448
STARLINK-36488          
1 67306U 26002B   26024.91668981 -.01974288  00000+0 -18417-1 0  9996
2 67306  42.9993 215.4311 0001507 270.9318 334.9151 15.69514717  4387
STARLINK-36481          
1 67307U 26002C   26024.80761076  .00486570  00000+0  30435-2 0  9998
2 67307  42.9995 216.0575 0020484 292.7850  67.0854 15.74404306  4334
STARLINK-36449          
1 67308U 26002D   26024.91668981 -.01935813  00000+0 -18037-1 0  9997
2 67308  42.9993 215.4164 0001398 262.9370 348.6841 15.69481503  4443
STARLINK-36482          
1 67309U 26002E   26024.87053640  .01097207  00000+0  65757-2 0  9999
2 67309  42.9982 215.6711 0023741 282.6610  77.1605 15.74117367  4345
STARLINK-36491          
1 67310U 26002F   26024.55520695  .00506693  00000+0  35286-2 0  9992
2 67310  42.9986 217.6049 0002977 227.2880 132.7737 15.72075249  4297
STARLINK-36495          
1 67311U 26002G   26024.91668981 -.01981883  00000+0 -18492-1 0  9994
2 67311  42.9994 215.4119 0001387 269.4033 344.1057 15.69523433  4533
STARLINK-36485          
1 67312U 26002H   26024.87117046 -.02584838  00000+0 -22860-1 0  9995
2 67312  42.9978 215.6742 0012386 234.7535 125.2174 15.70920592  4349
STARLINK-36445          
1 67313U 26002J   26024.91668981 -.01969850  00000+0 -18370-1 0  9991
2 67313  42.9993 215.4017 0001676 270.6016 346.7449 15.69513371  4530
STARLINK-36476          
1 67314U 26002K   26024.91668981 -.01977263  00000+0 -18446-1 0  9993
2 67314  42.9994 215.3979 0001444 271.0144 348.2502 15.69518052  4389
